[{"OBJECT_NAME":"STARLINK-3114","OBJECT_ID":"2021-104U","EPOCH":"2026-03-09T17:58:10.357536","MEAN_MOTION":15.08836725,"ECCENTRICITY":0.0001485,"INCLINATION":53.2177,"RA_OF_ASC_NODE":228.8579,"ARG_OF_PERICENTER":100.3258,"MEAN_ANOMALY":259.7902,"EPHEMERIS_TYPE":0,"CLASSIFICATION_TYPE":"U","NORAD_CAT_ID":49426,"ELEMENT_SET_NO":999,"REV_AT_EPOCH":23863,"BSTAR":2.1457878e-5,"MEAN_MOTION_DOT":5.4e-7,"MEAN_MOTION_DDOT":0},{"OBJECT_NAME":"OBJECT D","OBJECT_ID":"2025-013D","EPOCH":"2026-03-09T22:45:56.369376","MEAN_MOTION":15.10588544,"ECCENTRICITY":0.0008827,"INCLINATION":97.6457,"RA_OF_ASC_NODE":238.3603,"ARG_OF_PERICENTER":18.3993,"MEAN_ANOMALY":341.7554,"EPHEMERIS_TYPE":0,"CLASSIFICATION_TYPE":"U","NORAD_CAT_ID":62732,"ELEMENT_SET_NO":999,"REV_AT_EPOCH":6229,"BSTAR":0.00036300228,"MEAN_MOTION_DOT":5.935e-5,"MEAN_MOTION_DDOT":0}]
